[{"OBJECT_NAME":"STARLINK-1231","OBJECT_ID":"2020-012AL","EPOCH":"2026-03-09T22:37:47.053344","MEAN_MOTION":15.21109103,"ECCENTRICITY":0.00044424,"INCLINATION":53.0512,"RA_OF_ASC_NODE":14.6305,"ARG_OF_PERICENTER":85.7688,"MEAN_ANOMALY":274.3815,"EPHEMERIS_TYPE":0,"CLASSIFICATION_TYPE":"U","NORAD_CAT_ID":45212,"ELEMENT_SET_NO":999,"REV_AT_EPOCH":33526,"BSTAR":0.0021253625,"MEAN_MOTION_DOT":0.00047876,"MEAN_MOTION_DDOT":0},{"OBJECT_NAME":"YAOGAN-35 04A","OBJECT_ID":"2022-100A","EPOCH":"2026-03-06T19:06:06.057216","MEAN_MOTION":15.2292121,"ECCENTRICITY":0.00089031,"INCLINATION":35.0121,"RA_OF_ASC_NODE":335.6537,"ARG_OF_PERICENTER":77.9263,"MEAN_ANOMALY":282.2449,"EPHEMERIS_TYPE":0,"CLASSIFICATION_TYPE":"U","NORAD_CAT_ID":53522,"ELEMENT_SET_NO":999,"REV_AT_EPOCH":19764,"BSTAR":1.9251867e-5,"MEAN_MOTION_DOT":4.25e-6,"MEAN_MOTION_DDOT":0}]
